[{"OBJECT_NAME":"STARLINK-1279","OBJECT_ID":"2020-019A","EPOCH":"2026-03-09T05:57:01.126944","MEAN_MOTION":15.57042246,"ECCENTRICITY":7.012e-5,"INCLINATION":53.0416,"RA_OF_ASC_NODE":100.83,"ARG_OF_PERICENTER":120.8921,"MEAN_ANOMALY":239.2159,"EPHEMERIS_TYPE":0,"CLASSIFICATION_TYPE":"U","NORAD_CAT_ID":45360,"ELEMENT_SET_NO":999,"REV_AT_EPOCH":33060,"BSTAR":0.00083008269,"MEAN_MOTION_DOT":0.00061081,"MEAN_MOTION_DDOT":0},{"OBJECT_NAME":"STARLINK-32335","OBJECT_ID":"2024-195S","EPOCH":"2026-03-09T22:00:01.999584","MEAN_MOTION":15.5379623,"ECCENTRICITY":0.00142813,"INCLINATION":53.1479,"RA_OF_ASC_NODE":149.8644,"ARG_OF_PERICENTER":3.406,"MEAN_ANOMALY":158.0753,"EPHEMERIS_TYPE":0,"CLASSIFICATION_TYPE":"U","NORAD_CAT_ID":61703,"ELEMENT_SET_NO":999,"REV_AT_EPOCH":583,"BSTAR":0.0040457397,"MEAN_MOTION_DOT":0.00274037,"MEAN_MOTION_DDOT":0}]
